SatCatId,ObjectName,LaunchYear,OrbitalPeriod,LaunchMass,StatusCode,Inclination,Status,UcsData,OrbitClassEstimated,LaunchSiteCountry,Owner,UseType,Purpose,LaunchVehicleClass,TLE1,TLE2,MeanMotion,Eccentricity,OrbitClass
56317,STARLINK-6038,2023,95.92,-1.0,+,97.65,Active,0,LEO,USA,USA,Unknown,Unknown,Unknown,1 56317U 23058A   23275.60109614 -.00000072  00000+0 -10192-5 0  9994,2 56317  97.6542 275.0740 0004008  47.6513 312.5051 15.01256409 24387,15.01256409,0.0004008,LEO
56318,STARLINK-5954,2023,95.92,-1.0,+,97.65,Active,0,LEO,USA,USA,Unknown,Unknown,Unknown,1 56318U 23058B   23275.99727894  .00003808  00000+0  30074-3 0  9990,2 56318  97.6535 275.4718 0002319  56.1540 303.9905 15.01283250 24305,15.0128325,0.0002319,LEO
56319,STARLINK-6039,2023,95.92,-1.0,+,97.65,Active,0,LEO,USA,USA,Unknown,Unknown,Unknown,1 56319U 23058C   23275.59553582  .00000754  00000+0  63316-4 0  9991,2 56319  97.6538 275.0798 0002404  36.3414 323.7973 15.01258115 24383,15.01258115,0.0002404,LEO
56320,STARLINK-5988,2023,95.97,-1.0,+,97.65,Active,0,LEO,USA,USA,Unknown,Unknown,Unknown,1 56320U 23058D   23275.73027322  .00000278  00000+0  26802-4 0  9997,2 56320  97.6539 275.2056 0002048  92.9582 267.1876 15.00446768 24265,15.00446768,0.0002048,LEO
56321,STARLINK-5876,2023,95.99,-1.0,+,97.65,Active,0,LEO,USA,USA,Unknown,Unknown,Unknown,1 56321U 23058E   23276.52318477 -.00494272  00000+0 -42142-1 0  9995,2 56321  97.6529 276.0036 0001654  94.6267 265.5145 15.00040440 24373,15.0004044,0.0001654,LEO
56322,STARLINK-6033,2023,95.92,-1.0,+,97.65,Active,0,LEO,USA,USA,Unknown,Unknown,Unknown,1 56322U 23058F   23275.59924310 -.00000191  00000+0 -10284-4 0  9999,2 56322  97.6540 275.0760 0003205  38.2014 321.9437 15.01256512 24380,15.01256512,0.0003205,LEO
56323,STARLINK-6035,2023,95.92,-1.0,+,97.65,Active,0,LEO,USA,USA,Unknown,Unknown,Unknown,1 56323U 23058G   23275.79178854  .00000331  00000+0  30355-4 0  9991,2 56323  97.6534 275.2770 0001725  94.2140 265.9281 15.01259294 24276,15.01259294,0.0001725,LEO
56324,STARLINK-6034,2023,95.92,-1.0,+,97.65,Active,0,LEO,USA,USA,Unknown,Unknown,Unknown,1 56324U 23058H   23276.52682000  .00000356  00000+0  32314-4 0  9991,2 56324  97.6535 276.0014 0001943  51.6224 308.5174 15.01264291 24380,15.01264291,0.0001943,LEO
56325,STARLINK-5981,2023,95.92,-1.0,+,97.65,Active,0,LEO,USA,USA,Unknown,Unknown,Unknown,1 56325U 23058J   23276.51755634 -.00000209  00000+0 -11661-4 0  9996,2 56325  97.6534 276.0042 0000904 111.9051 248.2269 15.01259318 24384,15.01259318,9.04e-05,LEO
56326,STARLINK-5980,2023,95.92,-1.0,+,97.65,Active,0,LEO,USA,USA,Unknown,Unknown,Unknown,1 56326U 23058K   23275.79388879  .00000244  00000+0  23585-4 0  9994,2 56326  97.6543 275.2751 0002815  87.6258 272.5288 15.01258020 24272,15.0125802,0.0002815,LEO
56327,STARLINK-5997,2023,95.92,-1.0,+,97.65,Active,0,LEO,USA,USA,Unknown,Unknown,Unknown,1 56327U 23058L   23275.98063179  .00000351  00000+0  31911-4 0  9990,2 56327  97.6542 275.4809 0000753 127.0778 233.0515 15.01258135 24309,15.01258135,7.53e-05,LEO
56328,STARLINK-5992,2023,95.92,-1.0,+,97.65,Active,0,LEO,USA,USA,Unknown,Unknown,Unknown,1 56328U 23058M   23276.51940851 -.00000206  00000+0 -11485-4 0  9997,2 56328  97.6529 276.0044 0000881 110.9140 249.2179 15.01258613 24383,15.01258613,8.81e-05,LEO
56329,STARLINK-5984,2023,95.92,-1.0,+,97.65,Active,0,LEO,USA,USA,Unknown,Unknown,Unknown,1 56329U 23058N   23275.78252988  .00001658  00000+0  13365-3 0  9991,2 56329  97.6541 275.2821 0001060 108.7660 251.3679 15.01264422 24276,15.01264422,0.000106,LEO
56330,STARLINK-5967,2023,95.92,-1.0,+,97.65,Active,0,LEO,USA,USA,Unknown,Unknown,Unknown,1 56330U 23058P   23276.45300114  .00000142  00000+0  15646-4 0  9995,2 56330  97.6535 275.9383 0001464 102.1308 258.0080 15.01260969 24379,15.01260969,0.0001464,LEO
56331,STARLINK-5991,2023,95.92,-1.0,+,97.65,Active,0,LEO,USA,USA,Unknown,Unknown,Unknown,1 56331U 23058Q   23275.57701691 -.00000146  00000+0 -67486-5 0  9999,2 56331  97.6545 275.0909 0001728 168.5095 191.6168 15.01254729 24734,15.01254729,0.0001728,LEO
56332,STARLINK-5093,2023,95.92,-1.0,+,97.65,Active,0,LEO,USA,USA,Unknown,Unknown,Unknown,1 56332U 23058R   23275.78808598  .00000353  00000+0  32097-4 0  9994,2 56332  97.6542 275.2759 0001572  93.0001 267.1403 15.01256741 24279,15.01256741,0.0001572,LEO
56333,STARLINK-5553,2023,95.92,-1.0,+,97.65,Active,0,LEO,USA,USA,Unknown,Unknown,Unknown,1 56333U 23058S   23276.50829783 -.00000068  00000+0 -67703-6 0  9994,2 56333  97.6541 276.0128 0001788 154.1874 205.9440 15.01258023 24382,15.01258023,0.0001788,LEO
56334,STARLINK-5548,2023,95.92,-1.0,+,97.65,Active,0,LEO,USA,USA,Unknown,Unknown,Unknown,1 56334U 23058T   23275.77882314  .00000441  00000+0  38900-4 0  9990,2 56334  97.6543 275.2857 0000913 161.9801 198.1456 15.01256716 24275,15.01256716,9.13e-05,LEO
56335,STARLINK-5559,2023,95.92,-1.0,+,97.65,Active,0,LEO,USA,USA,Unknown,Unknown,Unknown,1 56335U 23058U   23276.03641953  .00000375  00000+0  33806-4 0  9999,2 56335  97.6549 275.5600 0002354 133.3951 226.7470 15.01260591 24316,15.01260591,0.0002354,LEO
56336,STARLINK-5562,2023,95.92,-1.0,+,97.65,Active,0,LEO,USA,USA,Unknown,Unknown,Unknown,1 56336U 23058V   23275.57725831 -.00001153  00000+0 -85204-4 0  9992,2 56336  97.6544 275.0902 0001697 154.7077 205.4231 15.01259663 24730,15.01259663,0.0001697,LEO
56337,STARLINK-5561,2023,95.92,-1.0,+,97.66,Active,0,LEO,USA,USA,Unknown,Unknown,Unknown,1 56337U 23058W   23275.76956757 -.00000132  00000+0 -56561-5 0  9998,2 56337  97.6551 275.2974 0002307 134.8647 225.2765 15.01258835 24766,15.01258835,0.0002307,LEO
56338,STARLINK-5554,2023,95.92,-1.0,+,97.65,Active,0,LEO,USA,USA,Unknown,Unknown,Unknown,1 56338U 23058X   23275.57331389 -.00001562  00000+0 -11710-3 0  9999,2 56338  97.6548 275.0951 0002250 147.8919 212.2442 15.01249672 24733,15.01249672,0.000225,LEO
56339,STARLINK-5552,2023,95.92,-1.0,+,97.65,Active,0,LEO,USA,USA,Unknown,Unknown,Unknown,1 56339U 23058Y   23275.76585970 -.00000708  00000+0 -50539-4 0  9992,2 56339  97.6555 275.3043 0002221 115.0500 245.0955 15.01254585 24763,15.01254585,0.0002221,LEO
56340,STARLINK-5540,2023,95.92,-1.0,+,97.65,Active,0,LEO,USA,USA,Unknown,Unknown,Unknown,1 56340U 23058Z   23276.23798485 -.00000078  00000+0 -14761-5 0  9992,2 56340  97.6547 275.7549 0001898 140.7516 219.3846 15.01259925 24342,15.01259925,0.0001898,LEO
56341,STARLINK-5543,2023,95.92,-1.0,+,97.66,Active,0,LEO,USA,USA,Unknown,Unknown,Unknown,1 56341U 23058AA  23275.76240378  .00000811  00000+0  67725-4 0  9993,2 56341  97.6575 275.3126 0001483  90.6722 269.4672 15.01261701 24767,15.01261701,0.0001483,LEO
56342,STARLINK-5955,2023,95.92,-1.0,+,97.65,Active,0,LEO,USA,USA,Unknown,Unknown,Unknown,1 56342U 23058AB  23275.76771671  .00000310  00000+0  28703-4 0  9996,2 56342  97.6553 275.3004 0001673 110.1741 249.9663 15.01256869 24761,15.01256869,0.0001673,LEO
56343,STARLINK-5976,2023,95.92,-1.0,+,97.66,Active,0,LEO,USA,USA,Unknown,Unknown,Unknown,1 56343U 23058AC  23275.76030836  .00001050  00000+0  86356-4 0  9998,2 56343  97.6579 275.3200 0001743  84.2055 275.9368 15.01255454 24765,15.01255454,0.0001743,LEO
56344,STARLINK-5974,2023,95.91,-1.0,+,97.66,Active,0,LEO,USA,USA,Unknown,Unknown,Unknown,1 56344U 23058AD  23276.49718684 -.00000002  00000+0  44360-5 0  9991,2 56344  97.6566 276.0302 0001571  97.1943 262.9460 15.01260672 24386,15.01260672,0.0001571,LEO
56345,STARLINK-5979,2023,95.92,-1.0,+,97.66,Active,0,LEO,USA,USA,Unknown,Unknown,Unknown,1 56345U 23058AE  23276.49002395  .00000333  00000+0  30553-4 0  9991,2 56345  97.6569 276.0512 0001749  91.9569 268.1856 15.01265535 24386,15.01265535,0.0001749,LEO
56346,STARLINK-5837,2023,95.92,-1.0,+,97.66,Active,0,LEO,USA,USA,Unknown,Unknown,Unknown,1 56346U 23058AF  23276.49534992 -.00001098  00000+0 -80931-4 0  9991,2 56346  97.6578 276.0365 0001719  88.2048 271.9373 15.01247975 24385,15.01247975,0.0001719,LEO
56347,STARLINK-5829,2023,95.92,-1.0,+,97.66,Active,0,LEO,USA,USA,Unknown,Unknown,Unknown,1 56347U 23058AG  23275.88991078  .00001126  00000+0  92245-4 0  9997,2 56347  97.6569 275.4600 0001788  92.2190 267.9239 15.01256637 24785,15.01256637,0.0001788,LEO
56348,STARLINK-5888,2023,95.92,-1.0,+,97.66,Active,0,LEO,USA,USA,Unknown,Unknown,Unknown,1 56348U 23058AH  23275.75845400  .00001257  00000+0  10241-3 0  9991,2 56348  97.6572 275.3248 0001734  87.9147 272.2276 15.01259344 24767,15.01259344,0.0001734,LEO
56349,STARLINK-5887,2023,95.92,-1.0,+,97.66,Active,0,LEO,USA,USA,Unknown,Unknown,Unknown,1 56349U 23058AJ  23276.01605051  .00001101  00000+0  90274-4 0  9991,2 56349  97.6563 275.6056 0002833  83.4133 276.7414 15.01260791 24317,15.01260791,0.0002833,LEO
56350,STARLINK-5886,2023,95.92,-1.0,+,97.66,Active,0,LEO,USA,USA,Unknown,Unknown,Unknown,1 56350U 23058AK  23275.95285608  .00000824  00000+0  68773-4 0  9997,2 56350  97.6563 275.5339 0001847  91.3610 268.7826 15.01260687 24305,15.01260687,0.0001847,LEO
56351,STARLINK-5891,2023,95.92,-1.0,+,97.66,Active,0,LEO,USA,USA,Unknown,Unknown,Unknown,1 56351U 23058AL  23275.88250325  .00000612  00000+0  52235-4 0  9999,2 56351  97.6563 275.4745 0002689  86.9853 273.1679 15.01259358 24781,15.01259358,0.0002689,LEO
56352,STARLINK-5885,2023,95.92,-1.0,+,97.66,Active,0,LEO,USA,USA,Unknown,Unknown,Unknown,1 56352U 23058AM  23275.88805838  .00000511  00000+0  44365-4 0  9998,2 56352  97.6564 275.4644 0001889  92.3676 267.7765 15.01259225 24784,15.01259225,0.0001889,LEO
56353,STARLINK-5874,2023,95.92,-1.0,+,97.65,Active,0,LEO,USA,USA,Unknown,Unknown,Unknown,1 56353U 23058AN  23275.73623882 -.00000016  00000+0  33443-5 0  9997,2 56353  97.6541 275.3600 0004202  42.0099 318.1447 15.01255748 24766,15.01255748,0.0004202,LEO
56354,STARLINK-5877,2023,95.92,-1.0,+,97.66,Active,0,LEO,USA,USA,Unknown,Unknown,Unknown,1 56354U 23058AP  23275.88435493  .00000967  00000+0  79905-4 0  9999,2 56354  97.6560 275.4712 0002182  89.7462 270.4013 15.01256243 24782,15.01256243,0.0002182,LEO
